{
  "norad_id": 54143,
  "name": "ONEWEB-0525",
  "history": [
    {
      "epoch": "2026-03-28T20:54:53.377632",
      "apogee_km": 1187.241063134662,
      "perigee_km": 1184.2906871791793,
      "latitude_deg": 56.1905226549115,
      "longitude_deg": 37.95930847991258,
      "semi_major_axis_km": 7563.90287515692,
      "eccentricity": 0.00019503,
      "inclination_deg": 87.9198,
      "raan_deg": 320.9745,
      "arg_perigee_deg": 87.3658,
      "mean_anomaly_deg": 272.7698,
      "mean_motion_rev_day": 13.19726224
    },
    {
      "epoch": "2026-03-29T04:11:35.623104",
      "apogee_km": 1187.2422990116002,
      "perigee_km": 1184.2878388634745,
      "latitude_deg": 70.9892630947538,
      "longitude_deg": 67.07291456009261,
      "semi_major_axis_km": 7563.9020689375375,
      "eccentricity": 0.0001953,
      "inclination_deg": 87.9196,
      "raan_deg": 320.9141,
      "arg_perigee_deg": 87.2658,
      "mean_anomaly_deg": 272.8698,
      "mean_motion_rev_day": 13.19726435
    }
  ]
}